STARLINK-32516          
1 62176U 24225P   26203.15260057  .00004452  00000+0  38071-3 0  9992
2 62176  70.0003 185.5300 0003050 269.2218  90.8592 14.98322276 90011
STARLINK-32542          
1 62177U 24225Q   26203.14007413  .00001874  00000+0  16480-3 0  9992
2 62177  70.0008 185.4832 0003964 257.2578 102.8139 14.98336067 90010
STARLINK-32600          
1 62178U 24225R   26203.22117509  .00004985  00000+0  42515-3 0  9994
2 62178  70.0008 175.3596 0003646 264.5744  95.4999 14.98337617 90270
STARLINK-32584          
1 62179U 24225S   26203.13172452  .00003144  00000+0  27107-3 0  9999
2 62179  70.0007 185.3920 0003010 269.1555  90.9259 14.98340239 90013
STARLINK-32587          
1 62180U 24225T   26203.18595591  .00004426  00000+0  37836-3 0  9993
2 62180  70.0004 185.1594 0004167 261.2730  98.7957 14.98343431 90028
STARLINK-32602          
1 62181U 24225U   26203.13770787  .00003931  00000+0  33697-3 0  9992
2 62181  70.0005 175.4738 0003219 265.5767  94.5024 14.98340054 90269
STARLINK-32565          
1 62182U 24225V   26203.16926959  .00003676  00000+0  31561-3 0  9994
2 62182  70.0006 185.1918 0003192 269.2523  90.8271 14.98339499 90028
STARLINK-32589          
1 62183U 24225W   26203.16913027  .00001879  00000+0  16524-3 0  9992
2 62183  70.0006 185.5882 0003181 268.9423  91.1371 14.98335341 90012
STARLINK-32581          
1 62184U 24225X   26203.18777203  .00002251  00000+0  19633-3 0  9998
2 62184  70.0006 175.2454 0003606 260.1296  99.9456 14.98341805 90278
STARLINK-32686          
1 62192U 24229A   26202.47235072  .00014513  00000+0  53563-3 0  9999
2 62192  42.9968 231.5702 0001223 316.6578  43.4177 15.27594282 91061
STARLINK-32688          
1 62193U 24229B   26202.09753374  .00014095  00000+0  52096-3 0  9993
2 62193  43.0012 237.3658 0001529 270.1375  89.9302 15.27565873 90963
STARLINK-32684          
1 62194U 24229C   26202.39876457  .00014810  00000+0  54609-3 0  9992
2 62194  43.0062 235.3251 0002330 277.7577  82.3010 15.27611746 92195
STARLINK-32672          
1 62195U 24229D   26202.41290249  .00006566  00000+0  24790-3 0  9992
2 62195  43.0019 235.4297 0001666 279.0584  81.0079 15.27583474 91010
STARLINK-32682          
1 62196U 24229E   26202.40033504  .00012932  00000+0  47846-3 0  9992
2 62196  43.0031 202.9198 0002463 286.3111  73.7469 15.27592028 91383
STARLINK-32663          
1 62197U 24229F   26202.44630758  .00009806  00000+0  36530-3 0  9995
2 62197  43.0011 235.6784 0001782 281.8313  78.2339 15.27589520 91012
STARLINK-32640          
1 62198U 24229G   26202.07825609  .00011505  00000+0  42682-3 0  9990
2 62198  43.0021 237.2172 0001003 240.5350 119.5402 15.27590779 90963
STARLINK-32653          
1 62199U 24229H   26202.49208876  .00012415  00000+0  45972-3 0  9994
2 62199  42.9992 228.1947 0001249 266.0717  93.9992 15.27592794 91105
STARLINK-32647          
1 62200U 24229J   26202.49241807  .00012583  00000+0  46578-3 0  9997
2 62200  43.0021 235.1680 0001913 277.2050  82.8584 15.27595805 91028
STARLINK-32667          
1 62201U 24229K   26202.12950888  .00008751  00000+0  32708-3 0  9996
2 62201  42.9976 236.7412 0001408 276.8516  83.2175 15.27587160 90976
STARLINK-32655          
1 62202U 24229L   26202.50398271  .00014214  00000+0  52473-3 0  9993
2 62202  43.0017 235.2512 0002231 290.5873  69.4739 15.27599521 91027
STARLINK-32665          
1 62203U 24229M   26202.48599295  .00013057  00000+0  48288-3 0  9993
2 62203  43.0028 235.1204 0001999 281.7236  78.3391 15.27598731 91027
STARLINK-32664          
1 62204U 24229N   26202.66668981  .00004923  00000+0  46151-4 0  9993
2 62204  42.9884 207.0192 0026465 106.6917 167.8988 15.68060818  5987
STARLINK-32660          
1 62205U 24229P   26203.31096404  .00021353  00000+0  78256-3 0  9998
2 62205  42.9996 216.2537 0001298 265.7549  94.3155 15.27607737 91316
STARLINK-32448          
1 62206U 24229Q   26203.04877362  .00016792  00000+0  61788-3 0  9992
2 62206  42.9991 231.5975 0000937   9.0278 351.0591 15.27603817 91115
STARLINK-32430          
1 62207U 24229R   26202.10572706  .00008644  00000+0  32316-3 0  9995
2 62207  43.0001 233.9675 0001466 270.9496  89.1188 15.27589123 91004
STARLINK-32675          
1 62208U 24229S   26202.15520679  .00018470  00000+0  67863-3 0  9996
2 62208  43.0009 236.9348 0001356 262.4679  97.6018 15.27598448 90971
STARLINK-32671          
1 62209U 24229T   26202.12582460  .00010246  00000+0  38123-3 0  9990
2 62209  42.9967 237.5653 0001096 268.7285  91.3441 15.27590291 90960
STARLINK-32670          
1 62210U 24229U   26202.47443249  .00016403  00000+0  60385-3 0  9997
2 62210  42.9990 235.0303 0000806 314.1516  45.9269 15.27603194 91022
STARLINK-32642          
1 62211U 24229V   26202.40261695  .00008319  00000+0  31138-3 0  9995
2 62211  43.0013 235.3488 0001443 274.9909  85.0777 15.27592667 91015
STARLINK-32668          
1 62212U 24229W   26202.43651525  .00009879  00000+0  36795-3 0  9990
2 62212  43.0012 232.1511 0001855 279.3738  80.6904 15.27587278 91052
