OBJECT_NAME,OBJECT_ID,EPOCH,MEAN_MOTION,ECCENTRICITY,INCLINATION,RA_OF_ASC_NODE,ARG_OF_PERICENTER,MEAN_ANOMALY,EPHEMERIS_TYPE,CLASSIFICATION_TYPE,NORAD_CAT_ID,ELEMENT_SET_NO,REV_AT_EPOCH,BSTAR,MEAN_MOTION_DOT,MEAN_MOTION_DDOT
STARLINK-32516,2024-225P,2026-07-22T03:39:44.689248,14.98322276,.00030506,70.0003,185.5300,269.2218,90.8592,0,U,62176,999,9001,.38070668E-3,.4452E-4,0
STARLINK-32542,2024-225Q,2026-07-22T03:21:42.404832,14.98336067,.00039643,70.0008,185.4832,257.2578,102.8139,0,U,62177,999,9001,.16480477E-3,.1874E-4,0
STARLINK-32600,2024-225R,2026-07-22T05:18:29.527776,14.98337617,.00036468,70.0008,175.3596,264.5744,95.4999,0,U,62178,999,9027,.42515235E-3,.4985E-4,0
STARLINK-32584,2024-225S,2026-07-22T03:09:40.998528,14.98340239,.00030102,70.0007,185.3920,269.1555,90.9259,0,U,62179,999,9001,.27106924E-3,.3144E-4,0
STARLINK-32587,2024-225T,2026-07-22T04:27:46.590624,14.98343431,.00041675,70.0004,185.1594,261.2730,98.7957,0,U,62180,999,9002,.37835834E-3,.4426E-4,0
STARLINK-32602,2024-225U,2026-07-22T03:18:17.959968,14.98340054,.00032192,70.0005,175.4738,265.5767,94.5024,0,U,62181,999,9026,.33696945E-3,.3931E-4,0
STARLINK-32565,2024-225V,2026-07-22T04:03:44.892576,14.98339499,.0003192,70.0006,185.1918,269.2523,90.8271,0,U,62182,999,9002,.31560762E-3,.3676E-4,0
STARLINK-32589,2024-225W,2026-07-22T04:03:32.855328,14.98335341,.00031814,70.0006,185.5882,268.9423,91.1371,0,U,62183,999,9001,.16523872E-3,.1879E-4,0
STARLINK-32581,2024-225X,2026-07-22T04:30:23.503392,14.98341805,.00036065,70.0006,175.2454,260.1296,99.9456,0,U,62184,999,9027,.19633345E-3,.2251E-4,0
STARLINK-32686,2024-229A,2026-07-21T11:20:11.102208,15.27594282,.0001223,42.9968,231.5702,316.6578,43.4177,0,U,62192,999,9106,.53562804E-3,.14513E-3,0
STARLINK-32688,2024-229B,2026-07-21T02:20:26.915136,15.27565873,.00015299,43.0012,237.3658,270.1375,89.9302,0,U,62193,999,9096,.52095515E-3,.14095E-3,0
STARLINK-32684,2024-229C,2026-07-21T09:34:13.258848,15.27611746,.00023305,43.0062,235.3251,277.7577,82.3010,0,U,62194,999,9219,.54609059E-3,.1481E-3,0
STARLINK-32672,2024-229D,2026-07-21T09:54:34.775136,15.27583474,.0001666,43.0019,235.4297,279.0584,81.0079,0,U,62195,999,9101,.24789707E-3,.6566E-4,0
STARLINK-32682,2024-229E,2026-07-21T09:36:28.947456,15.27592028,.00024632,43.0031,202.9198,286.3111,73.7469,0,U,62196,999,9138,.47845744E-3,.12932E-3,0
STARLINK-32663,2024-229F,2026-07-21T10:42:40.974912,15.27589520,.00017823,43.0011,235.6784,281.8313,78.2339,0,U,62197,999,9101,.36530139E-3,.9806E-4,0
STARLINK-32640,2024-229G,2026-07-21T01:52:41.326176,15.27590779,.00010031,43.0021,237.2172,240.5350,119.5402,0,U,62198,999,9096,.42682422E-3,.11505E-3,0
STARLINK-32653,2024-229H,2026-07-21T11:48:36.468864,15.27592794,.00012493,42.9992,228.1947,266.0717,93.9992,0,U,62199,999,9110,.45971632E-3,.12415E-3,0
STARLINK-32647,2024-229J,2026-07-21T11:49:04.921248,15.27595805,.00019139,43.0021,235.1680,277.2050,82.8584,0,U,62200,999,9102,.46578203E-3,.12583E-3,0
STARLINK-32667,2024-229K,2026-07-21T03:06:29.567232,15.27587160,.00014087,42.9976,236.7412,276.8516,83.2175,0,U,62201,999,9097,.32707615E-3,.8751E-4,0
STARLINK-32655,2024-229L,2026-07-21T12:05:44.106144,15.27599521,.00022316,43.0017,235.2512,290.5873,69.4739,0,U,62202,999,9102,.524729E-3,.14214E-3,0
STARLINK-32665,2024-229M,2026-07-21T11:39:49.790880,15.27598731,.00019995,43.0028,235.1204,281.7236,78.3391,0,U,62203,999,9102,.48288163E-3,.13057E-3,0
STARLINK-32664,2024-229N,2026-07-21T16:00:01.999584,15.68060818,.00264654,42.9884,207.0192,106.6917,167.8988,0,U,62204,999,598,.46150947E-4,.4923E-4,0
STARLINK-32660,2024-229P,2026-07-22T07:27:47.293056,15.27607737,.00012985,42.9996,216.2537,265.7549,94.3155,0,U,62205,999,9131,.78256488E-3,.21353E-3,0
STARLINK-32448,2024-229Q,2026-07-22T01:10:14.040768,15.27603817,.00009374,42.9991,231.5975,9.0278,351.0591,0,U,62206,999,9111,.6178777E-3,.16792E-3,0
STARLINK-32430,2024-229R,2026-07-21T02:32:14.817984,15.27589123,.00014663,43.0001,233.9675,270.9496,89.1188,0,U,62207,999,9100,.32316418E-3,.8644E-4,0
STARLINK-32675,2024-229S,2026-07-21T03:43:29.866656,15.27598448,.00013565,43.0009,236.9348,262.4679,97.6018,0,U,62208,999,9097,.67863328E-3,.1847E-3,0
STARLINK-32671,2024-229T,2026-07-21T03:01:11.245440,15.27590291,.00010961,42.9967,237.5653,268.7285,91.3441,0,U,62209,999,9096,.38122851E-3,.10246E-3,0
STARLINK-32670,2024-229U,2026-07-21T11:23:10.967136,15.27603194,.00008062,42.9990,235.0303,314.1516,45.9269,0,U,62210,999,9102,.60385333E-3,.16403E-3,0
STARLINK-32642,2024-229V,2026-07-21T09:39:46.104480,15.27592667,.00014434,43.0013,235.3488,274.9909,85.0777,0,U,62211,999,9101,.3113837E-3,.8319E-4,0
STARLINK-32668,2024-229W,2026-07-21T10:28:34.917600,15.27587278,.00018555,43.0012,232.1511,279.3738,80.6904,0,U,62212,999,9105,.36794531E-3,.9879E-4,0
